FLOCK 3P-50             
1 42029U 17008CK  17143.56275684  .00003418  00000-0  15083-3 0  9998
2 42029  97.4985 205.0083 0006650 305.0607  55.0005 15.22432999 13967
FLOCK 3P-52             
1 42030U 17008CL  17143.56431468  .00001540  00000-0  69711-4 0  9996
2 42030  97.4981 205.0025 0006638 303.6111  56.4491 15.22415027 14734
FLOCK 3P-46             
1 42031U 17008CM  17143.56129197  .00001383  00000-0  62865-4 0  9998
2 42031  97.4978 205.0045 0006604 305.2850  54.7768 15.22432891 14796
FLOCK 3P-47             
1 42032U 17008CN  17143.56085008  .00001838  00000-0  82582-4 0  9994
2 42032  97.4979 205.0053 0006609 306.0449  54.0175 15.22422601 14619
FLOCK 3P-44             
1 42033U 17008CP  17143.55663537  .00002143  00000-0  95604-4 0  9992
2 42033  97.4981 205.0115 0006528 308.4507  51.6142 15.22481830 13360
FLOCK 3P-64             
1 42034U 17008CQ  17143.55631080  .00001412  00000-0  64044-4 0  9993
2 42034  97.4977 205.0079 0006455 308.5469  51.5188 15.22475187 14786
FLOCK 3P-63             
1 42035U 17008CR  17143.55556486  .00001400  00000-0  63553-4 0  9991
2 42035  97.4975 205.0073 0006516 309.1203  50.9453 15.22468828 12757
FLOCK 3P-62             
1 42036U 17008CS  17143.55266970  .00002965  00000-0  13072-3 0  9995
2 42036  97.4978 205.0127 0006466 310.1572  49.9098 15.22572993 13951
FLOCK 3P-38             
1 42037U 17008CT  17143.55336648  .00001476  00000-0  66778-4 0  9994
2 42037  97.4975 205.0102 0006241 310.5623  49.5069 15.22499398 14732
FLOCK 3P-39             
1 42038U 17008CU  17143.55287735  .00001760  00000-0  78971-4 0  9991
2 42038  97.4973 205.0077 0006441 309.8686  50.1983 15.22533497 14680
FLOCK 3P-15             
1 42039U 17008CV  17143.55400358  .00001320  00000-0  60115-4 0  9993
2 42039  97.4976 205.0097 0006351 309.7939  50.2737 15.22460964 13962
FLOCK 3P-13             
1 42040U 17008CW  17143.61695655  .00001492  00000-0  67388-4 0  9997
2 42040  97.4977 205.0800 0006291 310.4712  49.5976 15.22542801 13965
FLOCK 3P 55             
1 42041U 17008CX  17143.60700778  .00001597  00000-0  71551-4 0  9993
2 42041  97.4977 205.0913 0006086 316.4134  43.6620 15.22710757 14809
FLOCK 3P-56             
1 42042U 17008CY  17143.60814220  .00001607  00000-0  72053-4 0  9992
2 42042  97.4973 205.0851 0006128 314.6190  45.4546 15.22673592 14594
FLOCK 3P-81             
1 42043U 17008CZ  17143.31069706  .00003816  00000-0  16825-3 0  9990
2 42043  97.5001 204.7605 0006606 288.6867  71.3652 15.22392314 13936
FLOCK 3P-87             
1 42044U 17008DA  17143.12030265  .00003332  00000-0  14768-3 0  9995
2 42044  97.5000 204.5513 0006746 284.8302  75.2187 15.22307833 14051
FLOCK 3P-29             
1 42045U 17008DB  17143.38418551  .00003663  00000-0  16218-3 0  9991
2 42045  97.4981 204.7848 0006334 280.3753  79.6769 15.22280656 13940
FLOCK 3P-82             
1 42046U 17008DC  17143.12139640  .00006051  00000-0  26565-3 0  9993
2 42046  97.5000 204.5523 0006918 285.1253  74.9218 15.22296811 13956
FLOCK 3P-78             
1 42047U 17008DD  17143.11980077  .00005469  00000-0  24013-3 0  9999
2 42047  97.5002 204.5549 0006726 284.8515  75.1976 15.22340371 13888
FLOCK 3P-74             
1 42048U 17008DE  17143.12343241  .00005386  00000-0  23720-3 0  9999
2 42048  97.5005 204.5534 0006955 285.7811  74.2658 15.22238533 13882
FLOCK 3P-31             
1 42049U 17008DF  17143.12335765  .00005990  00000-0  26352-3 0  9997
2 42049  97.4982 204.5214 0006517 282.5481  77.5026 15.22231115 13348
FLOCK 3P-83             
1 42050U 17008DG  17143.12264610  .00004102  00000-0  18161-3 0  9992
2 42050  97.5000 204.5499 0006893 286.1856  73.8621 15.22207061 14614
FLOCK 3P-72             
1 42051U 17008DH  17142.78547822  .00002423  00000-0  10777-3 0  9992
2 42051  97.5006 204.2384 0006450 287.0198  73.0331 15.22464136 12154
LEMUR-2-REDFERN-GOES    
1 42059U 98067LA  17143.43444489  .00014333  00000-0  19823-3 0  9996
2 42059  51.6386 160.5403 0007066 201.7154 158.3539 15.57376051 12152
TECHEDSAT 5             
1 42066U 98067LB  17143.56822677  .00105703  00000-0  89221-3 0  9998
2 42066  51.6341 156.9147 0003710  32.1783 327.9439 15.68950436 11947
LEMUR-2-TRUTNA          
1 42067U 98067LC  17143.41318333  .00030401  00000-0  39810-3 0  9993
2 42067  51.6380 160.3983 0006108 200.6387 159.4360 15.58305498 11980
LEMUR-2-AUSTINTACIOUS   
1 42068U 98067LD  17143.43462245  .00018048  00000-0  24681-3 0  9991
2 42068  51.6386 160.5403 0006437 201.0947 158.9781 15.57482296 12082
LEMUR-2-TRUTNAHD        
1 42069U 98067LE  17143.43433440  .00014835  00000-0  20405-3 0  9997
2 42069  51.6390 160.5406 0006362 198.3716 161.7047 15.57495179 12137
1998-067LH              
1 42700U 98067LH  17143.49291486  .00012306  00000-0  18648-3 0  9994
2 42700  51.6404 161.3406 0005998 228.0178 286.4395 15.55045908  1106
1998-067LJ              
1 42701U 98067LJ  17143.42741603  .00011061  00000-0  16843-3 0  9991
2 42701  51.6432 161.6748 0005277 239.9548 267.5413 15.55036011  1074
1998-067LK              
1 42702U 98067LK  17143.42768698  .00019957  00000-0  29711-3 0  9995
2 42702  51.6384 161.6723 0006234 222.0812 286.8792 15.55098313  1005
1998-067LL              
1 42703U 98067LL  17143.49360382  .00018640  00000-0  27923-3 0  9992
2 42703  51.6388 161.3488 0002759 168.3344 347.0223 15.54993352  1000
1998-067LM              
1 42704U 98067LM  17143.48763919  .00011231  00000-0  17188-3 0  9996
2 42704  51.6427 161.3863 0001922 145.4714 335.0503 15.54886122  1015
1998-067LN              
1 42705U 98067LN  17143.42728352  .00010264  00000-0  15785-3 0  9999
2 42705  51.6402 161.6832 0003399 168.3084 333.6512 15.54861519  1064
1998-067LP              
1 42706U 98067LP  17143.03183009  .00011380  00000-0  17324-3 0  9992
2 42706  51.6419 163.6596 0000661 272.3154 176.6318 15.55016524   938
1998-067LQ              
1 42707U 98067LQ  17143.36112944  .00011132  00000-0  16972-3 0  9992
2 42707  51.6406 162.0144 0001173 203.5374 289.5839 15.55000593   971
1998-067LR              
1 42708U 98067LR  17143.49390708  .00011680  00000-0  17779-3 0  9997
2 42708  51.6403 161.3439 0000718 159.6560 356.8052 15.54988324   959
1998-067LS              
1 42711U 98067LS  17142.50284589  .00008051  00000-0  12586-3 0  9990
2 42711  51.6392 166.3136 0002292 154.9127 205.1976 15.54756242   510
1998-067LT              
1 42712U 98067LT  17142.43891696  .00008128  00000-0  12756-3 0  9990
2 42712  51.6389 166.6363 0004393 156.6408 203.4783 15.54631252   742
1998-067LU              
1 42713U 98067LU  17143.49499985  .00010942  00000-0  16790-3 0  9992
2 42713  51.6400 161.3542 0002182 145.3180  11.5809 15.54843624   660
1998-067LV              
1 42714U 98067LV  17142.50307318  .00011703  00000-0  17950-3 0  9997
2 42714  51.6391 166.3151 0002297 148.9907 211.1220 15.54776570   620
1998-067LW              
1 42715U 98067LW  17143.61195898  .00010443  00000-0  16140-3 0  9999
2 42715  51.6409 160.7749 0003439 139.6479 309.1824 15.54702613   683
1998-067LX              
1 42716U 98067LX  17142.52040262  .00006299  00000-0  10000-3 0  9996
2 42716  51.6381 166.2185 0002514 158.6140 298.5576 15.54766043   645
